GLOBALSTAR M068         
1 32266U 07048D   24240.37136231 -.00000052  00000+0  28708-3 0  9991
2 32266  51.9879 117.8890 0000477 157.2558  14.0754 12.62797874780431
GLOBALSTAR M079         
1 37188U 10054A   24240.58191270 -.00000076  00000+0  15390-3 0  9996
2 37188  52.0054 313.5714 0000508  83.8217  64.7935 12.62263230640057
GLOBALSTAR M074         
1 37189U 10054B   24240.60895417 -.00000075  00000+0  15917-3 0  9998
2 37189  52.0032 312.8561 0000534 115.0084  37.0456 12.62271937640059
GLOBALSTAR M076         
1 37190U 10054C   24240.63747000 -.00000063  00000+0  22593-3 0  9992
2 37190  52.0044 312.9169 0000868  92.5029  67.0516 12.62255879640065
GLOBALSTAR M077         
1 37191U 10054D   24240.35433563 -.00000078  00000+0  14428-3 0  9992
2 37191  52.0054 270.5481 0000350 117.8323 255.7501 12.62263103640044
GLOBALSTAR M075         
1 37192U 10054E   24240.09875109 -.00000076  00000+0  15405-3 0  9994
2 37192  51.9977 356.9731 0000642  96.4206  75.1598 12.62263431638861
GLOBALSTAR M073         
1 37193U 10054F   24240.40056681 -.00000071  00000+0  18046-3 0  9995
2 37193  52.0044 269.6516 0000442  99.6648   3.6085 12.62268800640734
GLOBALSTAR M083         
1 37739U 11033A   24240.66613725 -.00000088  00000+0  86870-4 0  9994
2 37739  51.9836 217.9714 0000259  22.5277 149.3539 12.62263546610148
GLOBALSTAR M088         
1 37740U 11033B   24240.40202547 -.00000092  00000+0  64356-4 0  9994
2 37740  51.9730 124.5142 0000672  46.7422 125.0413 12.62266680605294
GLOBALSTAR M091         
1 37741U 11033C   24240.33637498 -.00000093  00000+0  60510-4 0  9993
2 37741  51.9991  87.7457 0000654  48.6113 122.8820 12.62266273606073
GLOBALSTAR M085         
1 37742U 11033D   24240.16440372 -.00000093  00000+0  58977-4 0  9992
2 37742  51.9881  39.5647 0000629  73.6388  97.3804 12.62264822606562
GLOBALSTAR M081         
1 37743U 11033E   24240.71047860 -.00000093  00000+0  60003-4 0  9992
2 37743  51.9974  40.5078 0000854  66.4667 306.9446 12.62268481607169
GLOBALSTAR M089         
1 37744U 11033F   24240.59190804 -.00000090  00000+0  77338-4 0  9992
2 37744  51.9956 355.1558 0001031 100.2222 272.5410 12.62267403607612
GLOBALSTAR M084         
1 38040U 11080A   24240.14437503 -.00000072  00000+0  17562-3 0  9997
2 38040  51.9986 223.6482 0000487 102.2046 336.9636 12.62266227585534
GLOBALSTAR M080         
1 38041U 11080B   24240.26173116 -.00000076  00000+0  15611-3 0  9995
2 38041  52.0037 224.7946 0000672  84.1542 288.6038 12.62264641585678
GLOBALSTAR M082         
1 38042U 11080C   24240.54737991 -.00000087  00000+0  94734-4 0  9990
2 38042  52.0064 179.3395 0000295 318.3351 213.1339 12.62265436586416
GLOBALSTAR M092         
1 38043U 11080D   24240.42775497 -.00000088  00000+0  89088-4 0  9998
2 38043  52.0069 270.0673 0000408 127.3250 340.4646 12.62265592584856
GLOBALSTAR M090         
1 38044U 11080E   24240.57382079 -.00000084  00000+0  10892-3 0  9997
2 38044  51.9876 173.4461 0000327  17.9830 153.5423 12.62266516586530
GLOBALSTAR M086         
1 38045U 11080F   24240.60039233 -.00000088  00000+0  86058-4 0  9995
2 38045  51.9888 173.8925 0001332  35.3350 137.7014 12.62266037586584
GLOBALSTAR M097         
1 39072U 13005A   24239.95574533 -.00000099  00000+0  28619-4 0  9999
2 39072  52.0045  90.1067 0000778  52.1773 307.9165 12.62269905533654
GLOBALSTAR M093         
1 39073U 13005B   24240.24549725 -.00000096  00000+0  42735-4 0  9991
2 39073  51.9804  82.9938 0000760  49.8666 310.2267 12.62263301533640
GLOBALSTAR M094         
1 39074U 13005C   24240.72074200 -.00000084  00000+0  11037-3 0  9993
2 39074  51.9987 355.6359 0000598  77.9099 282.1835 12.62267176535331
GLOBALSTAR M096         
1 39075U 13005D   24240.81316736 -.00000096  00000+0  40855-4 0  9991
2 39075  52.0086  43.6387 0000693  61.2573 298.8363 12.62269098534590
GLOBALSTAR M078         
1 39076U 13005E   24239.99482248 -.00000091  00000+0  71003-4 0  9995
2 39076  51.9865 131.0412 0000363 251.8288 108.2539 12.62275502532762
GLOBALSTAR M095         
1 39077U 13005F   24240.41716299 -.00000082  00000+0  12183-3 0  9994
2 39077  51.9792 127.0980 0000513 355.6912   4.3950 12.62263871532670
GLOBALSTAR M087         
1 52888U 22064A   24240.46887569 -.00000068  00000+0  11412-3 0  9996
2 52888  51.9773 319.8257 0009530 182.0665 178.0198 13.37583155107064
